STARLINK-37113          
1 68318U 26057AA  26085.25002315 -.00843818  26836-3 -94326-3 0  9994
2 68318  97.2815 208.1375 0001204  50.7930  55.5155 16.09465467  1923
PROGRESS-MS 33          
1 68319U 26058A   26085.16418549  .00013248  00000+0  25200-3 0  9996
2 68319  51.6341 350.9181 0006235 233.8862 126.1549 15.48550942   331
CENTISPACE-1 OBJECT A   
1 68350U 26060A   26085.02550528  .00000011  00000+0  32599-4 0  9997
2 68350  54.9834  14.9809 0012726 300.1022  59.8715 14.74886326   503
CENTISPACE-1 OBJECT B   
1 68351U 26060B   26085.09321529  .00000013  00000+0  32812-4 0  9992
2 68351  54.9834  14.7039 0013009 301.4041  58.5685 14.74919091   516
CENTISPACE-1 OBJECT C   
1 68352U 26060C   26085.22832110  .00000023  00000+0  34179-4 0  9990
2 68352  54.9837  14.1489 0012368 307.4498  52.5375 14.75104807   536
CENTISPACE-1 OBJECT D   
1 68353U 26060D   26084.88940995  .00000013  00000+0  32765-4 0  9991
2 68353  54.9856  15.5356 0012248 306.2125  53.7741 14.75148967   486
CENTISPACE-1 OBJECT E   
1 68354U 26060E   26084.88928162  .00000014  00000+0  32809-4 0  9994
2 68354  54.9772  15.5359 0012775 305.5560  54.4247 14.75205170   486
CENTISPACE-1 OBJECT F   
1 68355U 26060F   26085.29576464  .00000023  00000+0  34213-4 0  9996
2 68355  54.9787  13.8696 0013551 307.0302  52.9458 14.75232431   546
CENTISPACE-1 OBJECT G   
1 68356U 26060G   26085.09230716  .00000017  00000+0  33239-4 0  9992
2 68356  54.9884  14.7004 0013631 307.8185  52.1580 14.75313870   516
CENTISPACE-1 OBJECT H   
1 68357U 26060H   26084.61780387  .00000019  00000+0  33492-4 0  9997
2 68357  54.9848  16.6351 0014470 304.4277  55.5354 14.75425125   445
CENTISPACE-1 OBJECT J   
1 68358U 26060J   26084.61779005  .00000017  00000+0  33263-4 0  9997
2 68358  54.9877  16.6351 0013871 306.1411  53.8304 14.75435012   443
CENTISPACE-1 OBJECT K   
1 68359U 26060K   26085.09187525  .00000018  00000+0  33322-4 0  9998
2 68359  54.9793  14.6986 0014365 306.8084  53.1597 14.75496841   517
